STARLINK-35444          
1 66511U 25263AC  25329.08336806 -.01658956  78134-3 -42881-2 0  9995
2 66511  42.9982 231.0391 0001659 264.3531   2.3056 15.94312020  2790
STARLINK-35366          
1 66512U 25263AD  25329.08336806 -.01667475  78935-3 -42932-2 0  9998
2 66512  42.9980 231.0233 0001664 265.7789   6.9905 15.94386625  2795
STARLINK-35692          
1 66513U 25263AE  25329.08336806 -.01662522  78420-3 -43046-2 0  9993
2 66513  42.9983 231.0456 0001792 267.2688 356.7914 15.94280601  2796
SENTINEL-6B             
1 66514U 25264A   25329.04707549  .00000749  00000+0  32827-2 0  9991
2 66514  66.0392 199.4329 0011528 269.6414  90.3283 12.85877374  1015
SZ-21 MODULE            
1 66515U 25246C   25328.89089766  .00030448  00000+0  35100-3 0  9995
2 66515  41.4755 124.8258 0004763 142.5834 217.5337 15.61272633  1654
SHIJIAN-30A             
1 66545U 25266A   25329.08296057  .00013362  00000+0  70639-3 0  9997
2 66545  51.7991  55.5596 0012882 293.7391  66.2234 15.15697781   902
SHIJIAN-30B             
1 66546U 25266B   25329.08390316  .00015613  00000+0  82824-3 0  9991
2 66546  51.7973  55.5652 0010574 293.1605  66.8256 15.15468379   903
SHIJIAN-30C             
1 66547U 25266C   25329.15081243  .00010919  00000+0  58870-3 0  9994
2 66547  51.7985  55.2625 0011274 286.3799  73.5937 15.15207998   910
CZ-2C R/B               
1 66548U 25266D   25328.63778817  .00013433  00000+0  42491-3 0  9993
2 66548  52.0564  57.4831 0085285 111.2712 249.7408 15.29606157   842
GLOBAL-33               
1 66554U 25267A   25325.59612889  .00003575  00000+0  12516-3 0  9990
2 66554  42.0189 178.9818 0006750 273.7217  86.2848 15.30949686   165
ELECTRON KICK STAGE R/B 
1 66555U 25267B   25326.96523308  .00003327  00000+0  11488-3 0  9992
2 66555  42.0179 171.0992 0008398 283.6508  76.3394 15.31558882   379
ELECTRON R/B            
1 66556U 25267C   25325.68896391  .00330020  73273-5  18540-3 0  9993
2 66556  42.0620 178.0185 0218594 275.5638  82.0326 15.83492186   186
