CCSDS_OMM_VERS = 2.0
CREATION_DATE  = 
ORIGINATOR     = 

OBJECT_NAME    = STARLINK-35444
OBJECT_ID      = 2025-263AC
CENTER_NAME    = EARTH
REF_FRAME      = TEME
TIME_SYSTEM    = UTC
MEAN_ELEMENT_THEORY = SGP/SGP4

EPOCH          = 2025-11-25T02:00:03.000384
MEAN_MOTION    = 15.94312020
ECCENTRICITY   = .0001659
INCLINATION    = 42.9982
RA_OF_ASC_NODE = 231.0391
ARG_OF_PERICENTER = 264.3531
MEAN_ANOMALY   = 2.3056

EPHEMERIS_TYPE = 0
CLASSIFICATION_TYPE = U
NORAD_CAT_ID   = 66511
ELEMENT_SET_NO = 999
REV_AT_EPOCH   = 279
BSTAR          = -.42881E-2
MEAN_MOTION_DOT = -.1658956E-1
MEAN_MOTION_DDOT = .78134E-3

CCSDS_OMM_VERS = 2.0
CREATION_DATE  = 
ORIGINATOR     = 

OBJECT_NAME    = STARLINK-35366
OBJECT_ID      = 2025-263AD
CENTER_NAME    = EARTH
REF_FRAME      = TEME
TIME_SYSTEM    = UTC
MEAN_ELEMENT_THEORY = SGP/SGP4

EPOCH          = 2025-11-25T02:00:03.000384
MEAN_MOTION    = 15.94386625
ECCENTRICITY   = .0001664
INCLINATION    = 42.9980
RA_OF_ASC_NODE = 231.0233
ARG_OF_PERICENTER = 265.7789
MEAN_ANOMALY   = 6.9905

EPHEMERIS_TYPE = 0
CLASSIFICATION_TYPE = U
NORAD_CAT_ID   = 66512
ELEMENT_SET_NO = 999
REV_AT_EPOCH   = 279
BSTAR          = -.42932E-2
MEAN_MOTION_DOT = -.1667475E-1
MEAN_MOTION_DDOT = .78935E-3

CCSDS_OMM_VERS = 2.0
CREATION_DATE  = 
ORIGINATOR     = 

OBJECT_NAME    = STARLINK-35692
OBJECT_ID      = 2025-263AE
CENTER_NAME    = EARTH
REF_FRAME      = TEME
TIME_SYSTEM    = UTC
MEAN_ELEMENT_THEORY = SGP/SGP4

EPOCH          = 2025-11-25T02:00:03.000384
MEAN_MOTION    = 15.94280601
ECCENTRICITY   = .0001792
INCLINATION    = 42.9983
RA_OF_ASC_NODE = 231.0456
ARG_OF_PERICENTER = 267.2688
MEAN_ANOMALY   = 356.7914

EPHEMERIS_TYPE = 0
CLASSIFICATION_TYPE = U
NORAD_CAT_ID   = 66513
ELEMENT_SET_NO = 999
REV_AT_EPOCH   = 279
BSTAR          = -.43046E-2
MEAN_MOTION_DOT = -.1662522E-1
MEAN_MOTION_DDOT = .7842E-3

CCSDS_OMM_VERS = 2.0
CREATION_DATE  = 
ORIGINATOR     = 

OBJECT_NAME    = SENTINEL-6B
OBJECT_ID      = 2025-264A
CENTER_NAME    = EARTH
REF_FRAME      = TEME
TIME_SYSTEM    = UTC
MEAN_ELEMENT_THEORY = SGP/SGP4

EPOCH          = 2025-11-25T01:07:47.322336
MEAN_MOTION    = 12.85877374
ECCENTRICITY   = .0011528
INCLINATION    = 66.0392
RA_OF_ASC_NODE = 199.4329
ARG_OF_PERICENTER = 269.6414
MEAN_ANOMALY   = 90.3283

EPHEMERIS_TYPE = 0
CLASSIFICATION_TYPE = U
NORAD_CAT_ID   = 66514
ELEMENT_SET_NO = 999
REV_AT_EPOCH   = 101
BSTAR          = .32827E-2
MEAN_MOTION_DOT = .749E-5
MEAN_MOTION_DDOT = 0

CCSDS_OMM_VERS = 2.0
CREATION_DATE  = 
ORIGINATOR     = 

OBJECT_NAME    = SZ-21 MODULE
OBJECT_ID      = 2025-246C
CENTER_NAME    = EARTH
REF_FRAME      = TEME
TIME_SYSTEM    = UTC
MEAN_ELEMENT_THEORY = SGP/SGP4

EPOCH          = 2025-11-24T21:22:53.557824
MEAN_MOTION    = 15.61272633
ECCENTRICITY   = .0004763
INCLINATION    = 41.4755
RA_OF_ASC_NODE = 124.8258
ARG_OF_PERICENTER = 142.5834
MEAN_ANOMALY   = 217.5337

EPHEMERIS_TYPE = 0
CLASSIFICATION_TYPE = U
NORAD_CAT_ID   = 66515
ELEMENT_SET_NO = 999
REV_AT_EPOCH   = 165
BSTAR          = .351E-3
MEAN_MOTION_DOT = .30448E-3
MEAN_MOTION_DDOT = 0

CCSDS_OMM_VERS = 2.0
CREATION_DATE  = 
ORIGINATOR     = 

OBJECT_NAME    = SHIJIAN-30A
OBJECT_ID      = 2025-266A
CENTER_NAME    = EARTH
REF_FRAME      = TEME
TIME_SYSTEM    = UTC
MEAN_ELEMENT_THEORY = SGP/SGP4

EPOCH          = 2025-11-25T01:59:27.793248
MEAN_MOTION    = 15.15697781
ECCENTRICITY   = .0012882
INCLINATION    = 51.7991
RA_OF_ASC_NODE = 55.5596
ARG_OF_PERICENTER = 293.7391
MEAN_ANOMALY   = 66.2234

EPHEMERIS_TYPE = 0
CLASSIFICATION_TYPE = U
NORAD_CAT_ID   = 66545
ELEMENT_SET_NO = 999
REV_AT_EPOCH   = 90
BSTAR          = .70639E-3
MEAN_MOTION_DOT = .13362E-3
MEAN_MOTION_DDOT = 0

CCSDS_OMM_VERS = 2.0
CREATION_DATE  = 
ORIGINATOR     = 

OBJECT_NAME    = SHIJIAN-30B
OBJECT_ID      = 2025-266B
CENTER_NAME    = EARTH
REF_FRAME      = TEME
TIME_SYSTEM    = UTC
MEAN_ELEMENT_THEORY = SGP/SGP4

EPOCH          = 2025-11-25T02:00:49.233024
MEAN_MOTION    = 15.15468379
ECCENTRICITY   = .0010574
INCLINATION    = 51.7973
RA_OF_ASC_NODE = 55.5652
ARG_OF_PERICENTER = 293.1605
MEAN_ANOMALY   = 66.8256

EPHEMERIS_TYPE = 0
CLASSIFICATION_TYPE = U
NORAD_CAT_ID   = 66546
ELEMENT_SET_NO = 999
REV_AT_EPOCH   = 90
BSTAR          = .82824E-3
MEAN_MOTION_DOT = .15613E-3
MEAN_MOTION_DDOT = 0

CCSDS_OMM_VERS = 2.0
CREATION_DATE  = 
ORIGINATOR     = 

OBJECT_NAME    = SHIJIAN-30C
OBJECT_ID      = 2025-266C
CENTER_NAME    = EARTH
REF_FRAME      = TEME
TIME_SYSTEM    = UTC
MEAN_ELEMENT_THEORY = SGP/SGP4

EPOCH          = 2025-11-25T03:37:10.193952
MEAN_MOTION    = 15.15207998
ECCENTRICITY   = .0011274
INCLINATION    = 51.7985
RA_OF_ASC_NODE = 55.2625
ARG_OF_PERICENTER = 286.3799
MEAN_ANOMALY   = 73.5937

EPHEMERIS_TYPE = 0
CLASSIFICATION_TYPE = U
NORAD_CAT_ID   = 66547
ELEMENT_SET_NO = 999
REV_AT_EPOCH   = 91
BSTAR          = .5887E-3
MEAN_MOTION_DOT = .10919E-3
MEAN_MOTION_DDOT = 0

CCSDS_OMM_VERS = 2.0
CREATION_DATE  = 
ORIGINATOR     = 

OBJECT_NAME    = CZ-2C R/B
OBJECT_ID      = 2025-266D
CENTER_NAME    = EARTH
REF_FRAME      = TEME
TIME_SYSTEM    = UTC
MEAN_ELEMENT_THEORY = SGP/SGP4

EPOCH          = 2025-11-24T15:18:24.897888
MEAN_MOTION    = 15.29606157
ECCENTRICITY   = .00852856
INCLINATION    = 52.0564
RA_OF_ASC_NODE = 57.4831
ARG_OF_PERICENTER = 111.2712
MEAN_ANOMALY   = 249.7408

EPHEMERIS_TYPE = 0
CLASSIFICATION_TYPE = U
NORAD_CAT_ID   = 66548
ELEMENT_SET_NO = 999
REV_AT_EPOCH   = 84
BSTAR          = .42491176E-3
MEAN_MOTION_DOT = .13433E-3
MEAN_MOTION_DDOT = 0

CCSDS_OMM_VERS = 2.0
CREATION_DATE  = 
ORIGINATOR     = 

OBJECT_NAME    = GLOBAL-33
OBJECT_ID      = 2025-267A
CENTER_NAME    = EARTH
REF_FRAME      = TEME
TIME_SYSTEM    = UTC
MEAN_ELEMENT_THEORY = SGP/SGP4

EPOCH          = 2025-11-21T14:18:25.536096
MEAN_MOTION    = 15.30949686
ECCENTRICITY   = .00067503
INCLINATION    = 42.0189
RA_OF_ASC_NODE = 178.9818
ARG_OF_PERICENTER = 273.7217
MEAN_ANOMALY   = 86.2848

EPHEMERIS_TYPE = 0
CLASSIFICATION_TYPE = U
NORAD_CAT_ID   = 66554
ELEMENT_SET_NO = 999
REV_AT_EPOCH   = 16
BSTAR          = .1251568E-3
MEAN_MOTION_DOT = .3575E-4
MEAN_MOTION_DDOT = 0

CCSDS_OMM_VERS = 2.0
CREATION_DATE  = 
ORIGINATOR     = 

OBJECT_NAME    = ELECTRON KICK STAGE R/B
OBJECT_ID      = 2025-267B
CENTER_NAME    = EARTH
REF_FRAME      = TEME
TIME_SYSTEM    = UTC
MEAN_ELEMENT_THEORY = SGP/SGP4

EPOCH          = 2025-11-22T23:09:56.138112
MEAN_MOTION    = 15.31558882
ECCENTRICITY   = .00083988
INCLINATION    = 42.0179
RA_OF_ASC_NODE = 171.0992
ARG_OF_PERICENTER = 283.6508
MEAN_ANOMALY   = 76.3394

EPHEMERIS_TYPE = 0
CLASSIFICATION_TYPE = U
NORAD_CAT_ID   = 66555
ELEMENT_SET_NO = 999
REV_AT_EPOCH   = 37
BSTAR          = .11488137E-3
MEAN_MOTION_DOT = .3327E-4
MEAN_MOTION_DDOT = 0

CCSDS_OMM_VERS = 2.0
CREATION_DATE  = 
ORIGINATOR     = 

OBJECT_NAME    = ELECTRON R/B
OBJECT_ID      = 2025-267C
CENTER_NAME    = EARTH
REF_FRAME      = TEME
TIME_SYSTEM    = UTC
MEAN_ELEMENT_THEORY = SGP/SGP4

EPOCH          = 2025-11-21T16:32:06.481824
MEAN_MOTION    = 15.83492186
ECCENTRICITY   = .0218594
INCLINATION    = 42.0620
RA_OF_ASC_NODE = 178.0185
ARG_OF_PERICENTER = 275.5638
MEAN_ANOMALY   = 82.0326

EPHEMERIS_TYPE = 0
CLASSIFICATION_TYPE = U
NORAD_CAT_ID   = 66556
ELEMENT_SET_NO = 999
REV_AT_EPOCH   = 18
BSTAR          = .18539664E-3
MEAN_MOTION_DOT = .33002E-2
MEAN_MOTION_DDOT = .7327328E-5

